{"type": "FeatureCollection", "name": "star_line", "crs": {"type": "name", "properties": {"name": "urn:ogc:def:crs:OGC:1.3:CRS84"}}, "features": [{"type": "Feature", "properties": {"fid": 3972, "area_code": "PAC", "airport_identifier": "VTBS", "procedure_identifier": "TUMG1C", "transition_identifier": "ALEMI"}, "geometry": {"type": "MultiLineString", "coordinates": [[[101.43331111, 12.60709722], [101.20104722, 13.35416944]]]}}, {"type": "Feature", "properties": {"fid": 3976, "area_code": "PAC", "airport_identifier": "VTBS", "procedure_identifier": "TUMG1C", "transition_identifier": "ANREN"}, "geometry": {"type": "MultiLineString", "coordinates": [[[102.31054167, 13.87013333], [101.58491667, 13.40169444], [101.20104722, 13.35416944]]]}}, {"type": "Feature", "properties": {"fid": 3979, "area_code": "PAC", "airport_identifier": "VTBS", "procedure_identifier": "TUMG1C", "transition_identifier": "BUT"}, "geometry": {"type": "MultiLineString", "coordinates": [[[101.00047222, 12.66666667], [101.20104722, 13.35416944]]]}}, {"type": "Feature", "properties": {"fid": 3983, "area_code": "PAC", "airport_identifier": "VTBS", "procedure_identifier": "TUMG1C", "transition_identifier": "DULEM"}, "geometry": {"type": "MultiLineString", "coordinates": [[[102.23326389, 13.73766111], [101.58491667, 13.40169444], [101.20104722, 13.35416944]]]}}, {"type": "Feature", "properties": {"fid": 3986, "area_code": "PAC", "airport_identifier": "VTBS", "procedure_identifier": "TUMG1C", "transition_identifier": "GOMES"}, "geometry": {"type": "MultiLineString", "coordinates": [[[101.58491667, 13.40169444], [101.20104722, 13.35416944]]]}}, {"type": "Feature", "properties": {"fid": 3989, "area_code": "PAC", "airport_identifier": "VTBS", "procedure_identifier": "TUMG1C", "transition_identifier": "NUGPA"}, "geometry": {"type": "MultiLineString", "coordinates": [[[101.83313611, 13.04837778], [101.20104722, 13.35416944]]]}}, {"type": "Feature", "properties": {"fid": 3992, "area_code": "PAC", "airport_identifier": "VTBS", "procedure_identifier": "TUMG1C", "transition_identifier": "RYN"}, "geometry": {"type": "MultiLineString", "coordinates": [[[101.67644444, 12.77863889], [101.20104722, 13.35416944]]]}}, {"type": "Feature", "properties": {"fid": 4000, "area_code": "PAC", "airport_identifier": "VTBS", "procedure_identifier": "TUMG1C", "transition_identifier": null}, "geometry": {"type": "MultiLineString", "coordinates": [[[101.20104722, 13.35416944], [100.896675, 13.41804444], [100.80917778, 13.55150556], [100.82934167, 13.62522778], [100.88652222, 13.83396389], [100.90840833, 13.91385], [100.93103889, 13.99625556]]]}}, {"type": "Feature", "properties": {"fid": 4011, "area_code": "PAC", "airport_identifier": "VTSS", "procedure_identifier": "KENE1B", "transition_identifier": "RW08"}, "geometry": {"type": "MultiLineString", "coordinates": [[[100.69211111, 6.72772778], [100.51468333, 6.75626944], [100.4527, 6.75626667], [100.39090278, 6.75631944], [100.25962222, 6.75633611], [100.19886389, 6.83638611]]]}}, {"type": "Feature", "properties": {"fid": 4014, "area_code": "PAC", "airport_identifier": "VTBS", "procedure_identifier": "WILA1C", "transition_identifier": "BONVO"}, "geometry": {"type": "MultiLineString", "coordinates": [[[99.76853333, 13.73624167], [100.05982222, 14.40471667]]]}}, {"type": "Feature", "properties": {"fid": 4017, "area_code": "PAC", "airport_identifier": "VTBS", "procedure_identifier": "WILA1C", "transition_identifier": "IBETO"}, "geometry": {"type": "MultiLineString", "coordinates": [[[99.49602222, 14.17670556], [100.05982222, 14.40471667]]]}}, {"type": "Feature", "properties": {"fid": 4020, "area_code": "PAC", "airport_identifier": "VTBS", "procedure_identifier": "WILA1C", "transition_identifier": "IGONI"}, "geometry": {"type": "MultiLineString", "coordinates": [[[99.90841389, 14.442425], [100.05982222, 14.40471667]]]}}, {"type": "Feature", "properties": {"fid": 4023, "area_code": "PAC", "airport_identifier": "VTBS", "procedure_identifier": "WILA1C", "transition_identifier": "TARED"}, "geometry": {"type": "MultiLineString", "coordinates": [[[99.52468611, 14.43875556], [100.05982222, 14.40471667]]]}}, {"type": "Feature", "properties": {"fid": 4032, "area_code": "PAC", "airport_identifier": "VTBS", "procedure_identifier": "WILA1C", "transition_identifier": null}, "geometry": {"type": "MultiLineString", "coordinates": [[[100.05982222, 14.40471667], [100.19183611, 14.37175], [100.33911944, 14.334875], [100.47061389, 14.30186944], [100.67111111, 14.25138889], [100.60333611, 13.99375556], [100.71924722, 13.96344722], [100.74071944, 14.04447222]]]}}, {"type": "Feature", "properties": {"fid": 4044, "area_code": "PAC", "airport_identifier": "VTSS", "procedure_identifier": "ELRE1A", "transition_identifier": "RW26"}, "geometry": {"type": "MultiLineString", "coordinates": [[[100.10181389, 7.43768333], [100.21168056, 7.33858611], [100.298775, 7.25997778], [100.40203056, 7.25347222], [100.56294167, 7.24328889], [100.57760833, 7.07377222], [100.58771111, 6.95696389]]]}}, {"type": "Feature", "properties": {"fid": 4049, "area_code": "PAC", "airport_identifier": "VTSP", "procedure_identifier": "SATV1C", "transition_identifier": "RW09"}, "geometry": {"type": "MultiLineString", "coordinates": [[[97.96557778, 8.48390833], [97.99647778, 8.30853611], [98.00933889, 8.18511944], [98.01889444, 8.08507222]]]}}, {"type": "Feature", "properties": {"fid": 4052, "area_code": "PAC", "airport_identifier": "VTBS", "procedure_identifier": "LEBI1C", "transition_identifier": "GUTSO"}, "geometry": {"type": "MultiLineString", "coordinates": [[[100.58175, 12.80553889], [100.473475, 13.08744722]]]}}, {"type": "Feature", "properties": {"fid": 4055, "area_code": "PAC", "airport_identifier": "VTBS", "procedure_identifier": "LEBI1C", "transition_identifier": "HOTEL"}, "geometry": {"type": "MultiLineString", "coordinates": [[[100.33008333, 13.00172222], [100.473475, 13.08744722]]]}}, {"type": "Feature", "properties": {"fid": 4058, "area_code": "PAC", "airport_identifier": "VTBS", "procedure_identifier": "LEBI1C", "transition_identifier": "SURMA"}, "geometry": {"type": "MultiLineString", "coordinates": [[[100.44240278, 11.85623611], [100.473475, 13.08744722]]]}}, {"type": "Feature", "properties": {"fid": 4067, "area_code": "PAC", "airport_identifier": "VTBS", "procedure_identifier": "LEBI1C", "transition_identifier": null}, "geometry": {"type": "MultiLineString", "coordinates": [[[100.473475, 13.08744722], [100.60349722, 13.26724167], [100.71542778, 13.42216111], [100.80917778, 13.55150556], [100.82934167, 13.62522778], [100.88652222, 13.83396389], [100.90840833, 13.91385], [100.93103889, 13.99625556]]]}}, {"type": "Feature", "properties": {"fid": 4077, "area_code": "PAC", "airport_identifier": "VTCL", "procedure_identifier": "OTBA1B", "transition_identifier": "RW18"}, "geometry": {"type": "MultiLineString", "coordinates": [[[99.93953333, 18.25393611], [99.64680278, 18.24583056], [99.63782222, 18.354075], [99.62936944, 18.45581944], [99.48956111, 18.44509722]]]}}, {"type": "Feature", "properties": {"fid": 4081, "area_code": "PAC", "airport_identifier": "VTUU", "procedure_identifier": "POTE1D", "transition_identifier": "RW23"}, "geometry": {"type": "MultiLineString", "coordinates": [[[105.36841111, 15.36459722], [105.18546389, 15.36306389], [105.01770556, 15.365125]]]}}, {"type": "Feature", "properties": {"fid": 4085, "area_code": "PAC", "airport_identifier": "VTSS", "procedure_identifier": "TAXE1A", "transition_identifier": "RW26"}, "geometry": {"type": "MultiLineString", "coordinates": [[[100.77909444, 6.77804722], [100.69195833, 6.87598889], [100.58771111, 6.95696389]]]}}, {"type": "Feature", "properties": {"fid": 4092, "area_code": "PAC", "airport_identifier": "VTSP", "procedure_identifier": "ANPU1D", "transition_identifier": "RW27"}, "geometry": {"type": "MultiLineString", "coordinates": [[[97.87121667, 7.86135556], [98.14913889, 7.99646389], [98.37081944, 8.01735556], [98.56703056, 8.03574444], [98.55760833, 8.13581667], [98.50665556, 8.12719722]]]}}, {"type": "Feature", "properties": {"fid": 4096, "area_code": "PAC", "airport_identifier": "VTPM", "procedure_identifier": "KADA1W", "transition_identifier": "RW27"}, "geometry": {"type": "MultiLineString", "coordinates": [[[98.89469167, 16.7984], [98.86457222, 16.75743056], [98.82515556, 16.70378333]]]}}, {"type": "Feature", "properties": {"fid": 4101, "area_code": "PAC", "airport_identifier": "VTUU", "procedure_identifier": "ENLE1C", "transition_identifier": "RW05"}, "geometry": {"type": "MultiLineString", "coordinates": [[[104.46671944, 15.56479444], [104.64840833, 15.35223611], [104.65015556, 15.23082778], [104.72536111, 15.13923333]]]}}, {"type": "Feature", "properties": {"fid": 4108, "area_code": "PAC", "airport_identifier": "VTSS", "procedure_identifier": "OBLE1B", "transition_identifier": "RW08"}, "geometry": {"type": "MultiLineString", "coordinates": [[[100.54100833, 7.49652778], [100.45934167, 7.19669167], [100.34495, 7.17044167], [100.13808333, 7.12288889], [100.13808333, 6.916425], [100.19886389, 6.83638611]]]}}, {"type": "Feature", "properties": {"fid": 4114, "area_code": "PAC", "airport_identifier": "VTCC", "procedure_identifier": "LAMU2A", "transition_identifier": "RW36"}, "geometry": {"type": "MultiLineString", "coordinates": [[[98.67896111, 19.08698333], [98.787075, 18.85867778], [98.83989167, 18.74689722], [98.83930833, 18.43006667], [98.96201944, 18.42981944]]]}}, {"type": "Feature", "properties": {"fid": 4119, "area_code": "PAC", "airport_identifier": "VTUU", "procedure_identifier": "POTE1C", "transition_identifier": "RW05"}, "geometry": {"type": "MultiLineString", "coordinates": [[[105.36841111, 15.36459722], [105.12746944, 15.231], [104.81125, 15.0345], [104.72536111, 15.13923333]]]}}, {"type": "Feature", "properties": {"fid": 4124, "area_code": "PAC", "airport_identifier": "VTSB", "procedure_identifier": "IDNA1B", "transition_identifier": "RW04"}, "geometry": {"type": "MultiLineString", "coordinates": [[[99.25661944, 8.72881389], [99.20583611, 8.77243889], [99.06563889, 8.89278056], [98.98106944, 8.97443333]]]}}, {"type": "Feature", "properties": {"fid": 4128, "area_code": "PAC", "airport_identifier": "VTSB", "procedure_identifier": "ADLA1A", "transition_identifier": "RW22"}, "geometry": {"type": "MultiLineString", "coordinates": [[[99.51846111, 9.30277778], [99.40402222, 9.29483889], [99.28631111, 9.28669167]]]}}, {"type": "Feature", "properties": {"fid": 4137, "area_code": "PAC", "airport_identifier": "VTCC", "procedure_identifier": "MONL2A", "transition_identifier": "RW36"}, "geometry": {"type": "MultiLineString", "coordinates": [[[99.62870833, 18.78394444], [99.41090278, 18.59438611], [99.30162222, 18.53923889], [99.32885278, 18.40555556], [99.29271667, 18.30525], [99.15440833, 18.20489167], [99.08473056, 18.42949167], [98.96201944, 18.42981944]]]}}, {"type": "Feature", "properties": {"fid": 4144, "area_code": "PAC", "airport_identifier": "VTCL", "procedure_identifier": "IBIR1B", "transition_identifier": "RW18"}, "geometry": {"type": "MultiLineString", "coordinates": [[[99.38805556, 17.87305556], [99.64553611, 18.00539444], [99.64680278, 18.24583056], [99.63782222, 18.354075], [99.62936944, 18.45581944], [99.48956111, 18.44509722]]]}}, {"type": "Feature", "properties": {"fid": 4154, "area_code": "PAC", "airport_identifier": "VTCC", "procedure_identifier": "KABM2B", "transition_identifier": "RW18"}, "geometry": {"type": "MultiLineString", "coordinates": [[[99.54640278, 18.46071667], [99.37027222, 18.5303], [99.20811667, 18.59416667], [99.20848889, 18.68935833], [99.20886667, 18.78579167], [99.20951944, 18.95139167], [99.20991111, 19.04983056], [99.11962222, 19.05013333], [98.96358889, 19.05055]]]}}, {"type": "Feature", "properties": {"fid": 4157, "area_code": "PAC", "airport_identifier": "VTBS", "procedure_identifier": "TUMG1D", "transition_identifier": "ALEMI"}, "geometry": {"type": "MultiLineString", "coordinates": [[[101.43331111, 12.60709722], [101.20104722, 13.35416944]]]}}, {"type": "Feature", "properties": {"fid": 4161, "area_code": "PAC", "airport_identifier": "VTBS", "procedure_identifier": "TUMG1D", "transition_identifier": "ANREN"}, "geometry": {"type": "MultiLineString", "coordinates": [[[102.31054167, 13.87013333], [101.58491667, 13.40169444], [101.20104722, 13.35416944]]]}}, {"type": "Feature", "properties": {"fid": 4164, "area_code": "PAC", "airport_identifier": "VTBS", "procedure_identifier": "TUMG1D", "transition_identifier": "BUT"}, "geometry": {"type": "MultiLineString", "coordinates": [[[101.00047222, 12.66666667], [101.20104722, 13.35416944]]]}}, {"type": "Feature", "properties": {"fid": 4168, "area_code": "PAC", "airport_identifier": "VTBS", "procedure_identifier": "TUMG1D", "transition_identifier": "DULEM"}, "geometry": {"type": "MultiLineString", "coordinates": [[[102.23326389, 13.73766111], [101.58491667, 13.40169444], [101.20104722, 13.35416944]]]}}, {"type": "Feature", "properties": {"fid": 4171, "area_code": "PAC", "airport_identifier": "VTBS", "procedure_identifier": "TUMG1D", "transition_identifier": "GOMES"}, "geometry": {"type": "MultiLineString", "coordinates": [[[101.58491667, 13.40169444], [101.20104722, 13.35416944]]]}}, {"type": "Feature", "properties": {"fid": 4174, "area_code": "PAC", "airport_identifier": "VTBS", "procedure_identifier": "TUMG1D", "transition_identifier": "NUGPA"}, "geometry": {"type": "MultiLineString", "coordinates": [[[101.83313611, 13.04837778], [101.20104722, 13.35416944]]]}}, {"type": "Feature", "properties": {"fid": 4177, "area_code": "PAC", "airport_identifier": "VTBS", "procedure_identifier": "TUMG1D", "transition_identifier": "RYN"}, "geometry": {"type": "MultiLineString", "coordinates": [[[101.67644444, 12.77863889], [101.20104722, 13.35416944]]]}}, {"type": "Feature", "properties": {"fid": 4185, "area_code": "PAC", "airport_identifier": "VTBS", "procedure_identifier": "TUMG1D", "transition_identifier": null}, "geometry": {"type": "MultiLineString", "coordinates": [[[101.20104722, 13.35416944], [101.18655, 13.57098333], [101.02133056, 13.61445], [100.95519722, 13.63181667], [100.83945278, 13.66216111], [100.78587222, 13.46623889], [100.763725, 13.38546111]]]}}, {"type": "Feature", "properties": {"fid": 4195, "area_code": "PAC", "airport_identifier": "VTSB", "procedure_identifier": "IDNA1A", "transition_identifier": "RW22"}, "geometry": {"type": "MultiLineString", "coordinates": [[[99.25661944, 8.72881389], [99.32623333, 8.99123056], [99.45541667, 9.12321944], [99.37088333, 9.20496667], [99.28631111, 9.28669167]]]}}, {"type": "Feature", "properties": {"fid": 4199, "area_code": "PAC", "airport_identifier": "VTSB", "procedure_identifier": "TAVA1B", "transition_identifier": "RW04"}, "geometry": {"type": "MultiLineString", "coordinates": [[[99.07097778, 8.71571944], [99.01958333, 8.86365278], [98.98106944, 8.97443333]]]}}, {"type": "Feature", "properties": {"fid": 4202, "area_code": "PAC", "airport_identifier": "VTBS", "procedure_identifier": "NORT1C", "transition_identifier": "ALBOS"}, "geometry": {"type": "MultiLineString", "coordinates": [[[101.02830556, 14.74491667], [100.63901667, 14.71878889]]]}}, {"type": "Feature", "properties": {"fid": 4205, "area_code": "PAC", "airport_identifier": "VTBS", "procedure_identifier": "NORT1C", "transition_identifier": "BLAFF"}, "geometry": {"type": "MultiLineString", "coordinates": [[[100.29753056, 15.27595833], [100.63901667, 14.71878889]]]}}, {"type": "Feature", "properties": {"fid": 4208, "area_code": "PAC", "airport_identifier": "VTBS", "procedure_identifier": "NORT1C", "transition_identifier": "NOBER"}, "geometry": {"type": "MultiLineString", "coordinates": [[[100.66833333, 15.27655556], [100.63901667, 14.71878889]]]}}, {"type": "Feature", "properties": {"fid": 4211, "area_code": "PAC", "airport_identifier": "VTBS", "procedure_identifier": "NORT1C", "transition_identifier": "SEMBO"}, "geometry": {"type": "MultiLineString", "coordinates": [[[100.26331111, 14.89976667], [100.63901667, 14.71878889]]]}}, {"type": "Feature", "properties": {"fid": 4219, "area_code": "PAC", "airport_identifier": "VTBS", "procedure_identifier": "NORT1C", "transition_identifier": null}, "geometry": {"type": "MultiLineString", "coordinates": [[[100.63901667, 14.71878889], [100.68273889, 14.57681389], [100.72268889, 14.44695833], [100.67111111, 14.25138889], [100.60333611, 13.99375556], [100.71924722, 13.96344722], [100.74071944, 14.04447222]]]}}, {"type": "Feature", "properties": {"fid": 4229, "area_code": "PAC", "airport_identifier": "VTUD", "procedure_identifier": "ESGI1C", "transition_identifier": "RW30"}, "geometry": {"type": "MultiLineString", "coordinates": [[[102.25386944, 17.41618056], [102.52083333, 17.34720278], [102.68902222, 17.30353611], [102.92469167, 17.18798889], [102.98016667, 17.29229444]]]}}, {"type": "Feature", "properties": {"fid": 4233, "area_code": "PAC", "airport_identifier": "VTUU", "procedure_identifier": "VENP1C", "transition_identifier": "RW05"}, "geometry": {"type": "MultiLineString", "coordinates": [[[104.36727222, 15.11249444], [104.53539722, 15.12643056], [104.72536111, 15.13923333]]]}}, {"type": "Feature", "properties": {"fid": 4239, "area_code": "PAC", "airport_identifier": "VTUU", "procedure_identifier": "VENP1D", "transition_identifier": "RW23"}, "geometry": {"type": "MultiLineString", "coordinates": [[[104.36727222, 15.11249444], [104.54437778, 15.21876944], [104.71369444, 15.32014167], [104.94254722, 15.45683333], [105.01770556, 15.365125]]]}}, {"type": "Feature", "properties": {"fid": 4245, "area_code": "PAC", "airport_identifier": "VTSS", "procedure_identifier": "PIME1A", "transition_identifier": "RW26"}, "geometry": {"type": "MultiLineString", "coordinates": [[[100.4135, 7.51249444], [100.50195278, 7.35319722], [100.56294167, 7.24328889], [100.57760833, 7.07377222], [100.58771111, 6.95696389]]]}}, {"type": "Feature", "properties": {"fid": 4250, "area_code": "PAC", "airport_identifier": "VTSP", "procedure_identifier": "ONET1D", "transition_identifier": "RW27"}, "geometry": {"type": "MultiLineString", "coordinates": [[[98.77586667, 8.29927222], [98.64130278, 8.14363056], [98.55760833, 8.13581667], [98.50665556, 8.12719722]]]}}, {"type": "Feature", "properties": {"fid": 4256, "area_code": "PAC", "airport_identifier": "VTSS", "procedure_identifier": "PADP1B", "transition_identifier": "RW08"}, "geometry": {"type": "MultiLineString", "coordinates": [[[99.92551667, 7.28329444], [100.04445278, 7.19356944], [100.13808333, 7.12288889], [100.13808333, 6.916425], [100.19886389, 6.83638611]]]}}, {"type": "Feature", "properties": {"fid": 4261, "area_code": "PAC", "airport_identifier": "VTSS", "procedure_identifier": "OBLE1A", "transition_identifier": "RW26"}, "geometry": {"type": "MultiLineString", "coordinates": [[[100.54100833, 7.49652778], [100.56294167, 7.24328889], [100.57760833, 7.07377222], [100.58771111, 6.95696389]]]}}, {"type": "Feature", "properties": {"fid": 4265, "area_code": "PAC", "airport_identifier": "VTSB", "procedure_identifier": "IKER1A", "transition_identifier": "RW22"}, "geometry": {"type": "MultiLineString", "coordinates": [[[99.25888889, 9.52955278], [99.27316389, 9.403175], [99.28631111, 9.28669167]]]}}, {"type": "Feature", "properties": {"fid": 4270, "area_code": "PAC", "airport_identifier": "VTSP", "procedure_identifier": "SAVS1C", "transition_identifier": "RW09"}, "geometry": {"type": "MultiLineString", "coordinates": [[[98.62459167, 8.50444444], [98.09243056, 8.197775], [98.00933889, 8.18511944], [98.01889444, 8.08507222]]]}}, {"type": "Feature", "properties": {"fid": 4274, "area_code": "PAC", "airport_identifier": "VTCC", "procedure_identifier": "VISE2X", "transition_identifier": "RW18"}, "geometry": {"type": "MultiLineString", "coordinates": [[[98.57726111, 18.96983611], [98.80755278, 19.05083611], [98.96358889, 19.05055]]]}}, {"type": "Feature", "properties": {"fid": 4280, "area_code": "PAC", "airport_identifier": "VTSP", "procedure_identifier": "EMRI1C", "transition_identifier": "RW09"}, "geometry": {"type": "MultiLineString", "coordinates": [[[98.81122778, 8.10584722], [98.52115, 8.03145278], [98.11208333, 7.99294722], [98.02844444, 7.985025], [98.01889444, 8.08507222]]]}}, {"type": "Feature", "properties": {"fid": 4287, "area_code": "PAC", "airport_identifier": "VTCC", "procedure_identifier": "PANT2A", "transition_identifier": "RW36"}, "geometry": {"type": "MultiLineString", "coordinates": [[[99.32140278, 18.23088056], [99.26302222, 18.32301389], [99.29397778, 18.40899444], [99.27062222, 18.523575], [99.08473056, 18.42949167], [98.96201944, 18.42981944]]]}}, {"type": "Feature", "properties": {"fid": 4291, "area_code": "PAC", "airport_identifier": "VTSP", "procedure_identifier": "ANPU1C", "transition_identifier": "RW09"}, "geometry": {"type": "MultiLineString", "coordinates": [[[97.87121667, 7.86135556], [97.93523889, 8.07713056], [98.01889444, 8.08507222]]]}}, {"type": "Feature", "properties": {"fid": 4296, "area_code": "PAC", "airport_identifier": "VTSB", "procedure_identifier": "TOGI1A", "transition_identifier": "RW22"}, "geometry": {"type": "MultiLineString", "coordinates": [[[98.86333333, 9.44972222], [99.00497778, 9.41574722], [99.2017, 9.36839722], [99.28631111, 9.28669167]]]}}, {"type": "Feature", "properties": {"fid": 4299, "area_code": "PAC", "airport_identifier": "VTBS", "procedure_identifier": "EAST1D", "transition_identifier": "RUKSA"}, "geometry": {"type": "MultiLineString", "coordinates": [[[101.92009444, 14.56416667], [101.28624444, 14.30966667]]]}}, {"type": "Feature", "properties": {"fid": 4302, "area_code": "PAC", "airport_identifier": "VTBS", "procedure_identifier": "EAST1D", "transition_identifier": "UBLOD"}, "geometry": {"type": "MultiLineString", "coordinates": [[[101.43657222, 14.62095278], [101.28624444, 14.30966667]]]}}, {"type": "Feature", "properties": {"fid": 4311, "area_code": "PAC", "airport_identifier": "VTBS", "procedure_identifier": "EAST1D", "transition_identifier": null}, "geometry": {"type": "MultiLineString", "coordinates": [[[101.28624444, 14.30966667], [101.13000278, 14.12406389], [101.00646111, 13.97698889], [100.88652222, 13.83396389], [100.862975, 13.74806667], [100.83945278, 13.66216111], [100.78587222, 13.46623889], [100.763725, 13.38546111]]]}}, {"type": "Feature", "properties": {"fid": 4321, "area_code": "PAC", "airport_identifier": "VTUD", "procedure_identifier": "SURG1C", "transition_identifier": "RW30"}, "geometry": {"type": "MultiLineString", "coordinates": [[[102.40223889, 17.03274167], [102.59238333, 17.05594722], [102.85987778, 17.08828333], [102.92469167, 17.18798889], [102.98016667, 17.29229444]]]}}, {"type": "Feature", "properties": {"fid": 4329, "area_code": "PAC", "airport_identifier": "VTSS", "procedure_identifier": "PADP1A", "transition_identifier": "RW26"}, "geometry": {"type": "MultiLineString", "coordinates": [[[99.92551667, 7.28329444], [100.13808333, 7.27005278], [100.298775, 7.25997778], [100.40203056, 7.25347222], [100.56294167, 7.24328889], [100.57760833, 7.07377222], [100.58771111, 6.95696389]]]}}, {"type": "Feature", "properties": {"fid": 4333, "area_code": "PAC", "airport_identifier": "VTCC", "procedure_identifier": "ADLU2X", "transition_identifier": "RW18"}, "geometry": {"type": "MultiLineString", "coordinates": [[[99.22219167, 19.10291389], [99.11962222, 19.05013333], [98.96358889, 19.05055]]]}}, {"type": "Feature", "properties": {"fid": 4343, "area_code": "PAC", "airport_identifier": "VTCC", "procedure_identifier": "PANT2B", "transition_identifier": "RW18"}, "geometry": {"type": "MultiLineString", "coordinates": [[[99.32140278, 18.23088056], [99.25818333, 18.43380833], [99.20811667, 18.59416667], [99.20848889, 18.68935833], [99.20886667, 18.78579167], [99.20951944, 18.95139167], [99.20991111, 19.04983056], [99.11962222, 19.05013333], [98.96358889, 19.05055]]]}}, {"type": "Feature", "properties": {"fid": 4349, "area_code": "PAC", "airport_identifier": "VTSP", "procedure_identifier": "MONB1D", "transition_identifier": "RW27"}, "geometry": {"type": "MultiLineString", "coordinates": [[[98.68233611, 8.44976389], [98.53653889, 8.35943333], [98.54818333, 8.23588611], [98.55760833, 8.13581667], [98.50665556, 8.12719722]]]}}, {"type": "Feature", "properties": {"fid": 4357, "area_code": "PAC", "airport_identifier": "VTSP", "procedure_identifier": "SATV1D", "transition_identifier": "RW27"}, "geometry": {"type": "MultiLineString", "coordinates": [[[97.96557778, 8.48390833], [98.02404167, 8.33863889], [98.03844722, 8.18789444], [98.35188056, 8.21748056], [98.54818333, 8.23588611], [98.55760833, 8.13581667], [98.50665556, 8.12719722]]]}}, {"type": "Feature", "properties": {"fid": 4360, "area_code": "PAC", "airport_identifier": "VTBD", "procedure_identifier": "WEHA1B", "transition_identifier": "BONVO"}, "geometry": {"type": "MultiLineString", "coordinates": [[[99.76853333, 13.73624167], [100.05916944, 14.26546389]]]}}, {"type": "Feature", "properties": {"fid": 4363, "area_code": "PAC", "airport_identifier": "VTBD", "procedure_identifier": "WEHA1B", "transition_identifier": "IBETO"}, "geometry": {"type": "MultiLineString", "coordinates": [[[99.49602222, 14.17670556], [100.05916944, 14.26546389]]]}}, {"type": "Feature", "properties": {"fid": 4366, "area_code": "PAC", "airport_identifier": "VTBD", "procedure_identifier": "WEHA1B", "transition_identifier": "IGONI"}, "geometry": {"type": "MultiLineString", "coordinates": [[[99.90841389, 14.442425], [100.05916944, 14.26546389]]]}}, {"type": "Feature", "properties": {"fid": 4369, "area_code": "PAC", "airport_identifier": "VTBD", "procedure_identifier": "WEHA1B", "transition_identifier": "PASTO"}, "geometry": {"type": "MultiLineString", "coordinates": [[[99.50192778, 14.00125], [100.05916944, 14.26546389]]]}}, {"type": "Feature", "properties": {"fid": 4372, "area_code": "PAC", "airport_identifier": "VTBD", "procedure_identifier": "WEHA1B", "transition_identifier": "TARED"}, "geometry": {"type": "MultiLineString", "coordinates": [[[99.52468611, 14.43875556], [100.05916944, 14.26546389]]]}}, {"type": "Feature", "properties": {"fid": 4380, "area_code": "PAC", "airport_identifier": "VTBD", "procedure_identifier": "WEHA1B", "transition_identifier": "RW03B"}, "geometry": {"type": "MultiLineString", "coordinates": [[[100.05916944, 14.26546389], [100.22230833, 14.2247], [100.38892222, 14.18293889], [100.58919722, 14.13257222], [100.47621111, 13.941425], [100.37281667, 13.76614444], [100.37213889, 13.64946944]]]}}, {"type": "Feature", "properties": {"fid": 4383, "area_code": "PAC", "airport_identifier": "VTBD", "procedure_identifier": "ENDU3A", "transition_identifier": "UBLOD"}, "geometry": {"type": "MultiLineString", "coordinates": [[[101.43657222, 14.62095278], [101.22131944, 14.49705]]]}}, {"type": "Feature", "properties": {"fid": 4391, "area_code": "PAC", "airport_identifier": "VTBD", "procedure_identifier": "ENDU3A", "transition_identifier": "RW21B"}, "geometry": {"type": "MultiLineString", "coordinates": [[[101.22131944, 14.49705], [101.05540833, 14.4717], [100.92125, 14.45110833], [100.72150278, 14.4203], [100.60381389, 14.40206111], [100.66441389, 14.18948889], [100.69658889, 14.07649444]]]}}, {"type": "Feature", "properties": {"fid": 4394, "area_code": "PAC", "airport_identifier": "VTBD", "procedure_identifier": "NAKO1B", "transition_identifier": "ALBOS"}, "geometry": {"type": "MultiLineString", "coordinates": [[[101.02830556, 14.74491667], [100.51760833, 14.70386111]]]}}, {"type": "Feature", "properties": {"fid": 4397, "area_code": "PAC", "airport_identifier": "VTBD", "procedure_identifier": "NAKO1B", "transition_identifier": "BLAFF"}, "geometry": {"type": "MultiLineString", "coordinates": [[[100.29753056, 15.27595833], [100.51760833, 14.70386111]]]}}, {"type": "Feature", "properties": {"fid": 4400, "area_code": "PAC", "airport_identifier": "VTBD", "procedure_identifier": "NAKO1B", "transition_identifier": "NOBER"}, "geometry": {"type": "MultiLineString", "coordinates": [[[100.66833333, 15.27655556], [100.51760833, 14.70386111]]]}}, {"type": "Feature", "properties": {"fid": 4403, "area_code": "PAC", "airport_identifier": "VTBD", "procedure_identifier": "NAKO1B", "transition_identifier": "SEMBO"}, "geometry": {"type": "MultiLineString", "coordinates": [[[100.26331111, 14.89976667], [100.51760833, 14.70386111]]]}}, {"type": "Feature", "properties": {"fid": 4410, "area_code": "PAC", "airport_identifier": "VTBD", "procedure_identifier": "NAKO1B", "transition_identifier": "RW03B"}, "geometry": {"type": "MultiLineString", "coordinates": [[[100.51760833, 14.70386111], [100.5918, 14.50216111], [100.58919722, 14.13257222], [100.47621111, 13.941425], [100.37281667, 13.76614444], [100.37213889, 13.64946944]]]}}, {"type": "Feature", "properties": {"fid": 4413, "area_code": "PAC", "airport_identifier": "VTBD", "procedure_identifier": "WEHA3A", "transition_identifier": "BONVO"}, "geometry": {"type": "MultiLineString", "coordinates": [[[99.76853333, 13.73624167], [100.05916944, 14.26546389]]]}}, {"type": "Feature", "properties": {"fid": 4416, "area_code": "PAC", "airport_identifier": "VTBD", "procedure_identifier": "WEHA3A", "transition_identifier": "IBETO"}, "geometry": {"type": "MultiLineString", "coordinates": [[[99.49602222, 14.17670556], [100.05916944, 14.26546389]]]}}, {"type": "Feature", "properties": {"fid": 4419, "area_code": "PAC", "airport_identifier": "VTBD", "procedure_identifier": "WEHA3A", "transition_identifier": "IGONI"}, "geometry": {"type": "MultiLineString", "coordinates": [[[99.90841389, 14.442425], [100.05916944, 14.26546389]]]}}, {"type": "Feature", "properties": {"fid": 4422, "area_code": "PAC", "airport_identifier": "VTBD", "procedure_identifier": "WEHA3A", "transition_identifier": "PASTO"}, "geometry": {"type": "MultiLineString", "coordinates": [[[99.50192778, 14.00125], [100.05916944, 14.26546389]]]}}, {"type": "Feature", "properties": {"fid": 4425, "area_code": "PAC", "airport_identifier": "VTBD", "procedure_identifier": "WEHA3A", "transition_identifier": "TARED"}, "geometry": {"type": "MultiLineString", "coordinates": [[[99.52468611, 14.43875556], [100.05916944, 14.26546389]]]}}, {"type": "Feature", "properties": {"fid": 4433, "area_code": "PAC", "airport_identifier": "VTBD", "procedure_identifier": "WEHA3A", "transition_identifier": "RW21B"}, "geometry": {"type": "MultiLineString", "coordinates": [[[100.05916944, 14.26546389], [100.12160278, 14.2577], [100.32200833, 14.23266389], [100.44011944, 14.21782778], [100.53964167, 14.20528056], [100.66441389, 14.18948889], [100.69658889, 14.07649444]]]}}, {"type": "Feature", "properties": {"fid": 4439, "area_code": "PAC", "airport_identifier": "VTCL", "procedure_identifier": "IGNA1A", "transition_identifier": "RW36"}, "geometry": {"type": "MultiLineString", "coordinates": [[[99.56095833, 17.86208611], [99.49043056, 17.96898889], [99.45238056, 18.02659444], [99.48393611, 18.06697778], [99.51752778, 18.10993889]]]}}, {"type": "Feature", "properties": {"fid": 4448, "area_code": "PAC", "airport_identifier": "VTCC", "procedure_identifier": "ADLU2B", "transition_identifier": "RW18"}, "geometry": {"type": "MultiLineString", "coordinates": [[[99.22219167, 19.10291389], [99.33260833, 18.95091111], [99.33183333, 18.78530833], [99.20886667, 18.78579167], [99.20951944, 18.95139167], [99.20991111, 19.04983056], [99.11962222, 19.05013333], [98.96358889, 19.05055]]]}}, {"type": "Feature", "properties": {"fid": 4451, "area_code": "PAC", "airport_identifier": "VTBD", "procedure_identifier": "SEHN3A", "transition_identifier": "ALEMI"}, "geometry": {"type": "MultiLineString", "coordinates": [[[101.43331111, 12.60709722], [101.17848611, 13.29505]]]}}, {"type": "Feature", "properties": {"fid": 4454, "area_code": "PAC", "airport_identifier": "VTBD", "procedure_identifier": "SEHN3A", "transition_identifier": "ANREN"}, "geometry": {"type": "MultiLineString", "coordinates": [[[102.31054167, 13.87013333], [101.17848611, 13.29505]]]}}, {"type": "Feature", "properties": {"fid": 4457, "area_code": "PAC", "airport_identifier": "VTBD", "procedure_identifier": "SEHN3A", "transition_identifier": "DULEM"}, "geometry": {"type": "MultiLineString", "coordinates": [[[102.23326389, 13.73766111], [101.17848611, 13.29505]]]}}, {"type": "Feature", "properties": {"fid": 4460, "area_code": "PAC", "airport_identifier": "VTBD", "procedure_identifier": "SEHN3A", "transition_identifier": "GOMES"}, "geometry": {"type": "MultiLineString", "coordinates": [[[101.58491667, 13.40169444], [101.17848611, 13.29505]]]}}, {"type": "Feature", "properties": {"fid": 4463, "area_code": "PAC", "airport_identifier": "VTBD", "procedure_identifier": "SEHN3A", "transition_identifier": "NUGPA"}, "geometry": {"type": "MultiLineString", "coordinates": [[[101.83313611, 13.04837778], [101.17848611, 13.29505]]]}}, {"type": "Feature", "properties": {"fid": 4466, "area_code": "PAC", "airport_identifier": "VTBD", "procedure_identifier": "SEHN3A", "transition_identifier": "RYN"}, "geometry": {"type": "MultiLineString", "coordinates": [[[101.67644444, 12.77863889], [101.17848611, 13.29505]]]}}, {"type": "Feature", "properties": {"fid": 4479, "area_code": "PAC", "airport_identifier": "VTBD", "procedure_identifier": "SEHN3A", "transition_identifier": "RW21B"}, "geometry": {"type": "MultiLineString", "coordinates": [[[101.17848611, 13.29505], [100.86595278, 13.35110278], [100.56168889, 13.40528333], [100.329325, 13.44640556], [100.29433889, 13.58795556], [100.254075, 13.75068611], [100.31939722, 13.854875], [100.42487778, 14.02286389], [100.48713056, 14.12186111], [100.53964167, 14.20528056], [100.66441389, 14.18948889], [100.69658889, 14.07649444]]]}}, {"type": "Feature", "properties": {"fid": 4485, "area_code": "PAC", "airport_identifier": "VTSB", "procedure_identifier": "TOGI1B", "transition_identifier": "RW04"}, "geometry": {"type": "MultiLineString", "coordinates": [[[98.86333333, 9.44972222], [98.98473889, 9.30662222], [98.90172222, 9.17883333], [98.87228056, 9.07938889], [98.98106944, 8.97443333]]]}}, {"type": "Feature", "properties": {"fid": 4492, "area_code": "PAC", "airport_identifier": "VTSB", "procedure_identifier": "LAMU1A", "transition_identifier": "RW22"}, "geometry": {"type": "MultiLineString", "coordinates": [[[98.86893333, 8.80486667], [99.2121, 8.86811111], [99.32623333, 8.99123056], [99.45541667, 9.12321944], [99.37088333, 9.20496667], [99.28631111, 9.28669167]]]}}, {"type": "Feature", "properties": {"fid": 4495, "area_code": "PAC", "airport_identifier": "VTBD", "procedure_identifier": "SABA1B", "transition_identifier": "BUT"}, "geometry": {"type": "MultiLineString", "coordinates": [[[101.00047222, 12.66666667], [100.32756389, 13.12281389]]]}}, {"type": "Feature", "properties": {"fid": 4498, "area_code": "PAC", "airport_identifier": "VTBD", "procedure_identifier": "SABA1B", "transition_identifier": "GUTSO"}, "geometry": {"type": "MultiLineString", "coordinates": [[[100.58175, 12.80553889], [100.32756389, 13.12281389]]]}}, {"type": "Feature", "properties": {"fid": 4501, "area_code": "PAC", "airport_identifier": "VTBD", "procedure_identifier": "SABA1B", "transition_identifier": "HOTEL"}, "geometry": {"type": "MultiLineString", "coordinates": [[[100.33008333, 13.00172222], [100.32756389, 13.12281389]]]}}, {"type": "Feature", "properties": {"fid": 4504, "area_code": "PAC", "airport_identifier": "VTBD", "procedure_identifier": "SABA1B", "transition_identifier": "SURMA"}, "geometry": {"type": "MultiLineString", "coordinates": [[[100.44240278, 11.85623611], [100.32756389, 13.12281389]]]}}, {"type": "Feature", "properties": {"fid": 4509, "area_code": "PAC", "airport_identifier": "VTBD", "procedure_identifier": "SABA1B", "transition_identifier": "RW03B"}, "geometry": {"type": "MultiLineString", "coordinates": [[[100.32756389, 13.12281389], [100.32215556, 13.383275], [100.31881667, 13.54453333], [100.37213889, 13.64946944]]]}}, {"type": "Feature", "properties": {"fid": 4519, "area_code": "PAC", "airport_identifier": "VTCC", "procedure_identifier": "MARN2B", "transition_identifier": "RW18"}, "geometry": {"type": "MultiLineString", "coordinates": [[[99.096975, 18.14337222], [99.16789444, 18.43130556], [99.20811667, 18.59416667], [99.20848889, 18.68935833], [99.20886667, 18.78579167], [99.20951944, 18.95139167], [99.20991111, 19.04983056], [99.11962222, 19.05013333], [98.96358889, 19.05055]]]}}, {"type": "Feature", "properties": {"fid": 4525, "area_code": "PAC", "airport_identifier": "VTSP", "procedure_identifier": "SAVS1D", "transition_identifier": "RW27"}, "geometry": {"type": "MultiLineString", "coordinates": [[[98.62459167, 8.50444444], [98.53653889, 8.35943333], [98.54818333, 8.23588611], [98.55760833, 8.13581667], [98.50665556, 8.12719722]]]}}, {"type": "Feature", "properties": {"fid": 4530, "area_code": "PAC", "airport_identifier": "VTPM", "procedure_identifier": "VEGR1W", "transition_identifier": "RW27"}, "geometry": {"type": "MultiLineString", "coordinates": [[[98.61460833, 17.0592], [98.75552778, 16.89979167], [98.82347222, 16.82091667], [98.82515556, 16.70378333]]]}}, {"type": "Feature", "properties": {"fid": 4540, "area_code": "PAC", "airport_identifier": "VTCC", "procedure_identifier": "ENBA2B", "transition_identifier": "RW18"}, "geometry": {"type": "MultiLineString", "coordinates": [[[99.16787778, 18.1614], [99.19259722, 18.42750278], [99.20811667, 18.59416667], [99.20848889, 18.68935833], [99.20886667, 18.78579167], [99.20951944, 18.95139167], [99.20991111, 19.04983056], [99.11962222, 19.05013333], [98.96358889, 19.05055]]]}}, {"type": "Feature", "properties": {"fid": 4543, "area_code": "PAC", "airport_identifier": "VTBD", "procedure_identifier": "SEHN1B", "transition_identifier": "ALEMI"}, "geometry": {"type": "MultiLineString", "coordinates": [[[101.43331111, 12.60709722], [101.17848611, 13.29505]]]}}, {"type": "Feature", "properties": {"fid": 4546, "area_code": "PAC", "airport_identifier": "VTBD", "procedure_identifier": "SEHN1B", "transition_identifier": "ANREN"}, "geometry": {"type": "MultiLineString", "coordinates": [[[102.31054167, 13.87013333], [101.17848611, 13.29505]]]}}, {"type": "Feature", "properties": {"fid": 4549, "area_code": "PAC", "airport_identifier": "VTBD", "procedure_identifier": "SEHN1B", "transition_identifier": "DULEM"}, "geometry": {"type": "MultiLineString", "coordinates": [[[102.23326389, 13.73766111], [101.17848611, 13.29505]]]}}, {"type": "Feature", "properties": {"fid": 4552, "area_code": "PAC", "airport_identifier": "VTBD", "procedure_identifier": "SEHN1B", "transition_identifier": "GOMES"}, "geometry": {"type": "MultiLineString", "coordinates": [[[101.58491667, 13.40169444], [101.17848611, 13.29505]]]}}, {"type": "Feature", "properties": {"fid": 4555, "area_code": "PAC", "airport_identifier": "VTBD", "procedure_identifier": "SEHN1B", "transition_identifier": "NUGPA"}, "geometry": {"type": "MultiLineString", "coordinates": [[[101.83313611, 13.04837778], [101.17848611, 13.29505]]]}}, {"type": "Feature", "properties": {"fid": 4558, "area_code": "PAC", "airport_identifier": "VTBD", "procedure_identifier": "SEHN1B", "transition_identifier": "RYN"}, "geometry": {"type": "MultiLineString", "coordinates": [[[101.67644444, 12.77863889], [101.17848611, 13.29505]]]}}, {"type": "Feature", "properties": {"fid": 4565, "area_code": "PAC", "airport_identifier": "VTBD", "procedure_identifier": "SEHN1B", "transition_identifier": "RW03B"}, "geometry": {"type": "MultiLineString", "coordinates": [[[101.17848611, 13.29505], [100.67621667, 13.29815833], [100.40647778, 13.29979444], [100.32215556, 13.383275], [100.31881667, 13.54453333], [100.37213889, 13.64946944]]]}}, {"type": "Feature", "properties": {"fid": 4570, "area_code": "PAC", "airport_identifier": "VTCL", "procedure_identifier": "VENA1A", "transition_identifier": "RW36"}, "geometry": {"type": "MultiLineString", "coordinates": [[[99.69938333, 17.90316389], [99.64553611, 18.00539444], [99.57903333, 18.05972778], [99.51752778, 18.10993889]]]}}, {"type": "Feature", "properties": {"fid": 4576, "area_code": "PAC", "airport_identifier": "VTSP", "procedure_identifier": "URGA1D", "transition_identifier": "RW27"}, "geometry": {"type": "MultiLineString", "coordinates": [[[98.67528889, 7.77081944], [98.57809444, 7.91812222], [98.56703056, 8.03574444], [98.55760833, 8.13581667], [98.50665556, 8.12719722]]]}}, {"type": "Feature", "properties": {"fid": 4583, "area_code": "PAC", "airport_identifier": "VTSB", "procedure_identifier": "TAVA1A", "transition_identifier": "RW22"}, "geometry": {"type": "MultiLineString", "coordinates": [[[99.07097778, 8.71571944], [99.2121, 8.86811111], [99.32623333, 8.99123056], [99.45541667, 9.12321944], [99.37088333, 9.20496667], [99.28631111, 9.28669167]]]}}, {"type": "Feature", "properties": {"fid": 4587, "area_code": "PAC", "airport_identifier": "VTSG", "procedure_identifier": "TUNR1E", "transition_identifier": "RW32"}, "geometry": {"type": "MultiLineString", "coordinates": [[[99.31803056, 7.79353889], [99.18230833, 7.89333333], [99.11465, 7.9431]]]}}, {"type": "Feature", "properties": {"fid": 4591, "area_code": "PAC", "airport_identifier": "VTUD", "procedure_identifier": "GULN1C", "transition_identifier": "RW30"}, "geometry": {"type": "MultiLineString", "coordinates": [[[103.29307778, 17.32081389], [103.0577, 17.25419167], [102.98016667, 17.29229444]]]}}, {"type": "Feature", "properties": {"fid": 4597, "area_code": "PAC", "airport_identifier": "VTUD", "procedure_identifier": "POVE1A", "transition_identifier": "RW12"}, "geometry": {"type": "MultiLineString", "coordinates": [[[103.09157222, 16.984775], [102.87865556, 17.17144444], [102.77675556, 17.26056944], [102.52143056, 17.38544444], [102.57673889, 17.48986111]]]}}, {"type": "Feature", "properties": {"fid": 4602, "area_code": "PAC", "airport_identifier": "VTUD", "procedure_identifier": "MUGN1C", "transition_identifier": "RW30"}, "geometry": {"type": "MultiLineString", "coordinates": [[[102.96483056, 17.85199167], [103.091325, 17.50084722], [103.03570833, 17.39658333], [102.98016667, 17.29229444]]]}}, {"type": "Feature", "properties": {"fid": 4606, "area_code": "PAC", "airport_identifier": "VTUD", "procedure_identifier": "POVE1C", "transition_identifier": "RW30"}, "geometry": {"type": "MultiLineString", "coordinates": [[[103.09157222, 16.984775], [103.0577, 17.25419167], [102.98016667, 17.29229444]]]}}, {"type": "Feature", "properties": {"fid": 4611, "area_code": "PAC", "airport_identifier": "VTSB", "procedure_identifier": "ADLA1B", "transition_identifier": "RW04"}, "geometry": {"type": "MultiLineString", "coordinates": [[[99.51846111, 9.30277778], [99.20251944, 9.01689167], [99.06563889, 8.89278056], [98.98106944, 8.97443333]]]}}, {"type": "Feature", "properties": {"fid": 4616, "area_code": "PAC", "airport_identifier": "VTSP", "procedure_identifier": "MONB1C", "transition_identifier": "RW09"}, "geometry": {"type": "MultiLineString", "coordinates": [[[98.68233611, 8.44976389], [98.09243056, 8.197775], [98.00933889, 8.18511944], [98.01889444, 8.08507222]]]}}, {"type": "Feature", "properties": {"fid": 4621, "area_code": "PAC", "airport_identifier": "VTSP", "procedure_identifier": "EMRI1D", "transition_identifier": "RW27"}, "geometry": {"type": "MultiLineString", "coordinates": [[[98.81122778, 8.10584722], [98.64130278, 8.14363056], [98.55760833, 8.13581667], [98.50665556, 8.12719722]]]}}, {"type": "Feature", "properties": {"fid": 4628, "area_code": "PAC", "airport_identifier": "VTSP", "procedure_identifier": "UBNE1D", "transition_identifier": "RW27"}, "geometry": {"type": "MultiLineString", "coordinates": [[[97.80338611, 8.08893611], [98.03844722, 8.18789444], [98.35188056, 8.21748056], [98.54818333, 8.23588611], [98.55760833, 8.13581667], [98.50665556, 8.12719722]]]}}, {"type": "Feature", "properties": {"fid": 4634, "area_code": "PAC", "airport_identifier": "VTCL", "procedure_identifier": "OMDI1A", "transition_identifier": "RW36"}, "geometry": {"type": "MultiLineString", "coordinates": [[[99.92950833, 18.18521111], [99.82623889, 18.20741389], [99.64553611, 18.00539444], [99.57903333, 18.05972778], [99.51752778, 18.10993889]]]}}, {"type": "Feature", "properties": {"fid": 4640, "area_code": "PAC", "airport_identifier": "VTUD", "procedure_identifier": "GULN1A", "transition_identifier": "RW12"}, "geometry": {"type": "MultiLineString", "coordinates": [[[103.29307778, 17.32081389], [103.01658611, 17.42215556], [102.88765, 17.46924444], [102.63211111, 17.59425833], [102.57673889, 17.48986111]]]}}, {"type": "Feature", "properties": {"fid": 4646, "area_code": "PAC", "airport_identifier": "VTSP", "procedure_identifier": "SUSI1D", "transition_identifier": "RW27"}, "geometry": {"type": "MultiLineString", "coordinates": [[[98.30221389, 8.61646111], [98.53653889, 8.35943333], [98.54818333, 8.23588611], [98.55760833, 8.13581667], [98.50665556, 8.12719722]]]}}, {"type": "Feature", "properties": {"fid": 4651, "area_code": "PAC", "airport_identifier": "VTUU", "procedure_identifier": "ENLE1D", "transition_identifier": "RW23"}, "geometry": {"type": "MultiLineString", "coordinates": [[[104.46671944, 15.56479444], [104.663525, 15.49869722], [104.94254722, 15.45683333], [105.01770556, 15.365125]]]}}, {"type": "Feature", "properties": {"fid": 4655, "area_code": "PAC", "airport_identifier": "VTUU", "procedure_identifier": "OBKI1D", "transition_identifier": "RW23"}, "geometry": {"type": "MultiLineString", "coordinates": [[[104.71369444, 15.32014167], [104.94254722, 15.45683333], [105.01770556, 15.365125]]]}}, {"type": "Feature", "properties": {"fid": 4660, "area_code": "PAC", "airport_identifier": "VTSP", "procedure_identifier": "EPGO1D", "transition_identifier": "RW27"}, "geometry": {"type": "MultiLineString", "coordinates": [[[98.76525833, 7.90443056], [98.64130278, 8.14363056], [98.55760833, 8.13581667], [98.50665556, 8.12719722]]]}}, {"type": "Feature", "properties": {"fid": 4664, "area_code": "PAC", "airport_identifier": "VTUD", "procedure_identifier": "ESGI1A", "transition_identifier": "RW12"}, "geometry": {"type": "MultiLineString", "coordinates": [[[102.25386944, 17.41618056], [102.49901111, 17.52778056], [102.57673889, 17.48986111]]]}}, {"type": "Feature", "properties": {"fid": 4670, "area_code": "PAC", "airport_identifier": "VTUD", "procedure_identifier": "ELNE1C", "transition_identifier": "RW30"}, "geometry": {"type": "MultiLineString", "coordinates": [[[102.62943056, 17.77361389], [102.85536944, 17.61658333], [103.091325, 17.50084722], [103.03570833, 17.39658333], [102.98016667, 17.29229444]]]}}, {"type": "Feature", "properties": {"fid": 4679, "area_code": "PAC", "airport_identifier": "VTCC", "procedure_identifier": "CMA2B", "transition_identifier": "RW18"}, "geometry": {"type": "MultiLineString", "coordinates": [[[98.96122222, 18.76611111], [99.08558889, 18.68977222], [99.20848889, 18.68935833], [99.20886667, 18.78579167], [99.20951944, 18.95139167], [99.20991111, 19.04983056], [99.11962222, 19.05013333], [98.96358889, 19.05055]]]}}, {"type": "Feature", "properties": {"fid": 4684, "area_code": "PAC", "airport_identifier": "VTCL", "procedure_identifier": "MEMA1B", "transition_identifier": "RW18"}, "geometry": {"type": "MultiLineString", "coordinates": [[[99.31638889, 18.58111111], [99.37793333, 18.54895278], [99.44086389, 18.49045556], [99.48956111, 18.44509722]]]}}, {"type": "Feature", "properties": {"fid": 4687, "area_code": "PAC", "airport_identifier": "VTPM", "procedure_identifier": "URGU1W", "transition_identifier": "RW27"}, "geometry": {"type": "MultiLineString", "coordinates": [[[98.88953056, 16.69835833], [98.82515556, 16.70378333]]]}}, {"type": "Feature", "properties": {"fid": 4692, "area_code": "PAC", "airport_identifier": "VTSP", "procedure_identifier": "UPSA1C", "transition_identifier": "RW09"}, "geometry": {"type": "MultiLineString", "coordinates": [[[98.08106944, 8.56327778], [97.99647778, 8.30853611], [98.00933889, 8.18511944], [98.01889444, 8.08507222]]]}}, {"type": "Feature", "properties": {"fid": 4695, "area_code": "PAC", "airport_identifier": "VTBS", "procedure_identifier": "WILA1D", "transition_identifier": "BONVO"}, "geometry": {"type": "MultiLineString", "coordinates": [[[99.76853333, 13.73624167], [100.05982222, 14.40471667]]]}}, {"type": "Feature", "properties": {"fid": 4698, "area_code": "PAC", "airport_identifier": "VTBS", "procedure_identifier": "WILA1D", "transition_identifier": "IBETO"}, "geometry": {"type": "MultiLineString", "coordinates": [[[99.49602222, 14.17670556], [100.05982222, 14.40471667]]]}}, {"type": "Feature", "properties": {"fid": 4701, "area_code": "PAC", "airport_identifier": "VTBS", "procedure_identifier": "WILA1D", "transition_identifier": "IGONI"}, "geometry": {"type": "MultiLineString", "coordinates": [[[99.90841389, 14.442425], [100.05982222, 14.40471667]]]}}, {"type": "Feature", "properties": {"fid": 4704, "area_code": "PAC", "airport_identifier": "VTBS", "procedure_identifier": "WILA1D", "transition_identifier": "TARED"}, "geometry": {"type": "MultiLineString", "coordinates": [[[99.52468611, 14.43875556], [100.05982222, 14.40471667]]]}}, {"type": "Feature", "properties": {"fid": 4714, "area_code": "PAC", "airport_identifier": "VTBS", "procedure_identifier": "WILA1D", "transition_identifier": null}, "geometry": {"type": "MultiLineString", "coordinates": [[[100.05982222, 14.40471667], [100.25128889, 14.35687778], [100.54160556, 14.28401944], [100.74821111, 14.23194722], [100.7607, 14.11976667], [100.70915556, 13.92534722], [100.65246944, 13.71105556], [100.60024167, 13.51317778], [100.57888056, 13.43212778]]]}}, {"type": "Feature", "properties": {"fid": 4727, "area_code": "PAC", "airport_identifier": "VTCC", "procedure_identifier": "MONL2B", "transition_identifier": "RW18"}, "geometry": {"type": "MultiLineString", "coordinates": [[[99.62870833, 18.78394444], [99.4548, 18.78526944], [99.33183333, 18.78530833], [99.20886667, 18.78579167], [99.20951944, 18.95139167], [99.20991111, 19.04983056], [99.11962222, 19.05013333], [98.96358889, 19.05055]]]}}, {"type": "Feature", "properties": {"fid": 4732, "area_code": "PAC", "airport_identifier": "VTSB", "procedure_identifier": "EMVE1B", "transition_identifier": "RW04"}, "geometry": {"type": "MultiLineString", "coordinates": [[[99.35601944, 8.74377222], [99.23023889, 8.80835833], [99.06563889, 8.89278056], [98.98106944, 8.97443333]]]}}, {"type": "Feature", "properties": {"fid": 4742, "area_code": "PAC", "airport_identifier": "VTCC", "procedure_identifier": "ADLU2A", "transition_identifier": "RW36"}, "geometry": {"type": "MultiLineString", "coordinates": [[[99.22219167, 19.10291389], [99.32209722, 18.78386667], [99.41090278, 18.59438611], [99.30162222, 18.53923889], [99.32885278, 18.40555556], [99.29271667, 18.30525], [99.15440833, 18.20489167], [99.08473056, 18.42949167], [98.96201944, 18.42981944]]]}}, {"type": "Feature", "properties": {"fid": 4746, "area_code": "PAC", "airport_identifier": "VTUD", "procedure_identifier": "ELNE1A", "transition_identifier": "RW12"}, "geometry": {"type": "MultiLineString", "coordinates": [[[102.62943056, 17.77361389], [102.49901111, 17.52778056], [102.57673889, 17.48986111]]]}}, {"type": "Feature", "properties": {"fid": 4751, "area_code": "PAC", "airport_identifier": "VTSP", "procedure_identifier": "IGEV1C", "transition_identifier": "RW09"}, "geometry": {"type": "MultiLineString", "coordinates": [[[98.38882778, 8.61099444], [97.99647778, 8.30853611], [98.00933889, 8.18511944], [98.01889444, 8.08507222]]]}}, {"type": "Feature", "properties": {"fid": 4755, "area_code": "PAC", "airport_identifier": "VTSB", "procedure_identifier": "LAMU1B", "transition_identifier": "RW04"}, "geometry": {"type": "MultiLineString", "coordinates": [[[98.86893333, 8.80486667], [98.91629167, 8.87650278], [98.98106944, 8.97443333]]]}}, {"type": "Feature", "properties": {"fid": 4760, "area_code": "PAC", "airport_identifier": "VTSP", "procedure_identifier": "SUSI1C", "transition_identifier": "RW09"}, "geometry": {"type": "MultiLineString", "coordinates": [[[98.30221389, 8.61646111], [97.99647778, 8.30853611], [98.00933889, 8.18511944], [98.01889444, 8.08507222]]]}}, {"type": "Feature", "properties": {"fid": 4764, "area_code": "PAC", "airport_identifier": "VTSS", "procedure_identifier": "KENE1A", "transition_identifier": "RW26"}, "geometry": {"type": "MultiLineString", "coordinates": [[[100.69211111, 6.72772778], [100.69195833, 6.87598889], [100.58771111, 6.95696389]]]}}, {"type": "Feature", "properties": {"fid": 4770, "area_code": "PAC", "airport_identifier": "VTSB", "procedure_identifier": "EMVE1A", "transition_identifier": "RW22"}, "geometry": {"type": "MultiLineString", "coordinates": [[[99.35601944, 8.74377222], [99.32623333, 8.99123056], [99.45541667, 9.12321944], [99.37088333, 9.20496667], [99.28631111, 9.28669167]]]}}, {"type": "Feature", "properties": {"fid": 4774, "area_code": "PAC", "airport_identifier": "VTUU", "procedure_identifier": "VESU1C", "transition_identifier": "RW05"}, "geometry": {"type": "MultiLineString", "coordinates": [[[104.64840833, 15.35223611], [104.65015556, 15.23082778], [104.72536111, 15.13923333]]]}}, {"type": "Feature", "properties": {"fid": 4781, "area_code": "PAC", "airport_identifier": "VTCL", "procedure_identifier": "VENA1B", "transition_identifier": "RW18"}, "geometry": {"type": "MultiLineString", "coordinates": [[[99.69938333, 17.90316389], [99.64553611, 18.00539444], [99.64680278, 18.24583056], [99.63782222, 18.354075], [99.62936944, 18.45581944], [99.48956111, 18.44509722]]]}}, {"type": "Feature", "properties": {"fid": 4786, "area_code": "PAC", "airport_identifier": "VTSB", "procedure_identifier": "SEGR1B", "transition_identifier": "RW04"}, "geometry": {"type": "MultiLineString", "coordinates": [[[99.47536389, 8.88339444], [99.25080556, 8.88859444], [99.06563889, 8.89278056], [98.98106944, 8.97443333]]]}}, {"type": "Feature", "properties": {"fid": 4793, "area_code": "PAC", "airport_identifier": "VTSS", "procedure_identifier": "TAXE1B", "transition_identifier": "RW08"}, "geometry": {"type": "MultiLineString", "coordinates": [[[100.77909444, 6.77804722], [100.51468333, 6.75626944], [100.4527, 6.75626667], [100.39090278, 6.75631944], [100.25962222, 6.75633611], [100.19886389, 6.83638611]]]}}, {"type": "Feature", "properties": {"fid": 4799, "area_code": "PAC", "airport_identifier": "VTSS", "procedure_identifier": "ENVO1B", "transition_identifier": "RW08"}, "geometry": {"type": "MultiLineString", "coordinates": [[[100.23506944, 7.49259722], [100.13808333, 7.27005278], [100.13808333, 7.12288889], [100.13808333, 6.916425], [100.19886389, 6.83638611]]]}}, {"type": "Feature", "properties": {"fid": 4804, "area_code": "PAC", "airport_identifier": "VTUD", "procedure_identifier": "ANPU1C", "transition_identifier": "RW30"}, "geometry": {"type": "MultiLineString", "coordinates": [[[102.780875, 16.96658333], [102.85987778, 17.08828333], [102.92469167, 17.18798889], [102.98016667, 17.29229444]]]}}, {"type": "Feature", "properties": {"fid": 4810, "area_code": "PAC", "airport_identifier": "VTSS", "procedure_identifier": "TAMO1B", "transition_identifier": "RW08"}, "geometry": {"type": "MultiLineString", "coordinates": [[[100.40180556, 6.53552778], [100.39287778, 6.63910833], [100.39090278, 6.75631944], [100.25962222, 6.75633611], [100.19886389, 6.83638611]]]}}, {"type": "Feature", "properties": {"fid": 4813, "area_code": "PAC", "airport_identifier": "VTBD", "procedure_identifier": "ENDU1B", "transition_identifier": "UBLOD"}, "geometry": {"type": "MultiLineString", "coordinates": [[[101.43657222, 14.62095278], [101.22131944, 14.49705]]]}}, {"type": "Feature", "properties": {"fid": 4821, "area_code": "PAC", "airport_identifier": "VTBD", "procedure_identifier": "ENDU1B", "transition_identifier": "RW03B"}, "geometry": {"type": "MultiLineString", "coordinates": [[[101.22131944, 14.49705], [100.91244722, 14.49976944], [100.5918, 14.50216111], [100.58919722, 14.13257222], [100.47621111, 13.941425], [100.37281667, 13.76614444], [100.37213889, 13.64946944]]]}}, {"type": "Feature", "properties": {"fid": 4826, "area_code": "PAC", "airport_identifier": "VTCL", "procedure_identifier": "IBIR1A", "transition_identifier": "RW36"}, "geometry": {"type": "MultiLineString", "coordinates": [[[99.38805556, 17.87305556], [99.45238056, 18.02659444], [99.48393611, 18.06697778], [99.51752778, 18.10993889]]]}}, {"type": "Feature", "properties": {"fid": 4838, "area_code": "PAC", "airport_identifier": "VTCC", "procedure_identifier": "CMA2A", "transition_identifier": "RW36"}, "geometry": {"type": "MultiLineString", "coordinates": [[[98.96122222, 18.76611111], [99.08589167, 18.78470556], [99.18714167, 18.78438333], [99.32209722, 18.78386667], [99.41090278, 18.59438611], [99.30162222, 18.53923889], [99.32885278, 18.40555556], [99.29271667, 18.30525], [99.15440833, 18.20489167], [99.08473056, 18.42949167], [98.96201944, 18.42981944]]]}}, {"type": "Feature", "properties": {"fid": 4846, "area_code": "PAC", "airport_identifier": "VTSP", "procedure_identifier": "UPSA1D", "transition_identifier": "RW27"}, "geometry": {"type": "MultiLineString", "coordinates": [[[98.08106944, 8.56327778], [98.02404167, 8.33863889], [98.03844722, 8.18789444], [98.35188056, 8.21748056], [98.54818333, 8.23588611], [98.55760833, 8.13581667], [98.50665556, 8.12719722]]]}}, {"type": "Feature", "properties": {"fid": 4849, "area_code": "PAC", "airport_identifier": "VTBS", "procedure_identifier": "LEBI1D", "transition_identifier": "GUTSO"}, "geometry": {"type": "MultiLineString", "coordinates": [[[100.58175, 12.80553889], [100.473475, 13.08744722]]]}}, {"type": "Feature", "properties": {"fid": 4852, "area_code": "PAC", "airport_identifier": "VTBS", "procedure_identifier": "LEBI1D", "transition_identifier": "HOTEL"}, "geometry": {"type": "MultiLineString", "coordinates": [[[100.33008333, 13.00172222], [100.473475, 13.08744722]]]}}, {"type": "Feature", "properties": {"fid": 4855, "area_code": "PAC", "airport_identifier": "VTBS", "procedure_identifier": "LEBI1D", "transition_identifier": "SURMA"}, "geometry": {"type": "MultiLineString", "coordinates": [[[100.44240278, 11.85623611], [100.473475, 13.08744722]]]}}, {"type": "Feature", "properties": {"fid": 4863, "area_code": "PAC", "airport_identifier": "VTBS", "procedure_identifier": "LEBI1D", "transition_identifier": null}, "geometry": {"type": "MultiLineString", "coordinates": [[[100.473475, 13.08744722], [100.64169722, 13.21905556], [100.896675, 13.41804444], [100.95519722, 13.63181667], [100.83945278, 13.66216111], [100.78587222, 13.46623889], [100.763725, 13.38546111]]]}}, {"type": "Feature", "properties": {"fid": 4872, "area_code": "PAC", "airport_identifier": "VTSG", "procedure_identifier": "NULM1E", "transition_identifier": "RW32"}, "geometry": {"type": "MultiLineString", "coordinates": [[[99.04111944, 8.52158056], [99.17167778, 8.21857778], [99.24450556, 8.04933889], [99.11465, 7.9431]]]}}, {"type": "Feature", "properties": {"fid": 4878, "area_code": "PAC", "airport_identifier": "VTSP", "procedure_identifier": "IGEV1D", "transition_identifier": "RW27"}, "geometry": {"type": "MultiLineString", "coordinates": [[[98.38882778, 8.61099444], [98.53653889, 8.35943333], [98.54818333, 8.23588611], [98.55760833, 8.13581667], [98.50665556, 8.12719722]]]}}, {"type": "Feature", "properties": {"fid": 4884, "area_code": "PAC", "airport_identifier": "VTSB", "procedure_identifier": "SEGR1A", "transition_identifier": "RW22"}, "geometry": {"type": "MultiLineString", "coordinates": [[[99.47536389, 8.88339444], [99.47068611, 8.93965556], [99.45541667, 9.12321944], [99.37088333, 9.20496667], [99.28631111, 9.28669167]]]}}, {"type": "Feature", "properties": {"fid": 4887, "area_code": "PAC", "airport_identifier": "VTBS", "procedure_identifier": "EAST1C", "transition_identifier": "RUKSA"}, "geometry": {"type": "MultiLineString", "coordinates": [[[101.92009444, 14.56416667], [101.28624444, 14.30966667]]]}}, {"type": "Feature", "properties": {"fid": 4890, "area_code": "PAC", "airport_identifier": "VTBS", "procedure_identifier": "EAST1C", "transition_identifier": "UBLOD"}, "geometry": {"type": "MultiLineString", "coordinates": [[[101.43657222, 14.62095278], [101.28624444, 14.30966667]]]}}, {"type": "Feature", "properties": {"fid": 4899, "area_code": "PAC", "airport_identifier": "VTBS", "procedure_identifier": "EAST1C", "transition_identifier": null}, "geometry": {"type": "MultiLineString", "coordinates": [[[101.28624444, 14.30966667], [101.07216111, 14.05814444], [101.04683611, 13.96600833], [101.02421944, 13.88360556], [101.00228333, 13.80367778], [100.88652222, 13.83396389], [100.90840833, 13.91385], [100.93103889, 13.99625556]]]}}, {"type": "Feature", "properties": {"fid": 4906, "area_code": "PAC", "airport_identifier": "VTBD", "procedure_identifier": "NAKO3A", "transition_identifier": "ALBOS"}, "geometry": {"type": "MultiLineString", "coordinates": [[[101.02830556, 14.74491667], [100.51760833, 14.70386111]]]}}, {"type": "Feature", "properties": {"fid": 4909, "area_code": "PAC", "airport_identifier": "VTBD", "procedure_identifier": "NAKO3A", "transition_identifier": "BLAFF"}, "geometry": {"type": "MultiLineString", "coordinates": [[[100.29753056, 15.27595833], [100.51760833, 14.70386111]]]}}, {"type": "Feature", "properties": {"fid": 4912, "area_code": "PAC", "airport_identifier": "VTBD", "procedure_identifier": "NAKO3A", "transition_identifier": "NOBER"}, "geometry": {"type": "MultiLineString", "coordinates": [[[100.66833333, 15.27655556], [100.51760833, 14.70386111]]]}}, {"type": "Feature", "properties": {"fid": 4915, "area_code": "PAC", "airport_identifier": "VTBD", "procedure_identifier": "NAKO3A", "transition_identifier": "SEMBO"}, "geometry": {"type": "MultiLineString", "coordinates": [[[100.26331111, 14.89976667], [100.51760833, 14.70386111]]]}}, {"type": "Feature", "properties": {"fid": 4921, "area_code": "PAC", "airport_identifier": "VTBD", "procedure_identifier": "NAKO3A", "transition_identifier": "RW21B"}, "geometry": {"type": "MultiLineString", "coordinates": [[[100.51760833, 14.70386111], [100.57187222, 14.51396389], [100.60381389, 14.40206111], [100.66441389, 14.18948889], [100.69658889, 14.07649444]]]}}, {"type": "Feature", "properties": {"fid": 4924, "area_code": "PAC", "airport_identifier": "VTPM", "procedure_identifier": "TORA1W", "transition_identifier": "RW27"}, "geometry": {"type": "MultiLineString", "coordinates": [[[98.87192778, 16.594825], [98.82515556, 16.70378333]]]}}, {"type": "Feature", "properties": {"fid": 4930, "area_code": "PAC", "airport_identifier": "VTUU", "procedure_identifier": "ASAB1D", "transition_identifier": "RW23"}, "geometry": {"type": "MultiLineString", "coordinates": [[[104.35064167, 15.20262222], [104.54437778, 15.21876944], [104.71369444, 15.32014167], [104.94254722, 15.45683333], [105.01770556, 15.365125]]]}}, {"type": "Feature", "properties": {"fid": 4937, "area_code": "PAC", "airport_identifier": "VTSS", "procedure_identifier": "PIME1B", "transition_identifier": "RW08"}, "geometry": {"type": "MultiLineString", "coordinates": [[[100.4135, 7.51249444], [100.45934167, 7.19669167], [100.34495, 7.17044167], [100.13808333, 7.12288889], [100.13808333, 6.916425], [100.19886389, 6.83638611]]]}}, {"type": "Feature", "properties": {"fid": 4943, "area_code": "PAC", "airport_identifier": "VTSB", "procedure_identifier": "IKER1B", "transition_identifier": "RW04"}, "geometry": {"type": "MultiLineString", "coordinates": [[[99.25888889, 9.52955278], [98.98473889, 9.30662222], [98.90172222, 9.17883333], [98.87228056, 9.07938889], [98.98106944, 8.97443333]]]}}, {"type": "Feature", "properties": {"fid": 4948, "area_code": "PAC", "airport_identifier": "VTUD", "procedure_identifier": "SURG1A", "transition_identifier": "RW12"}, "geometry": {"type": "MultiLineString", "coordinates": [[[102.40223889, 17.03274167], [102.43073056, 17.21392778], [102.52143056, 17.38544444], [102.57673889, 17.48986111]]]}}, {"type": "Feature", "properties": {"fid": 4954, "area_code": "PAC", "airport_identifier": "VTSP", "procedure_identifier": "URGA1C", "transition_identifier": "RW09"}, "geometry": {"type": "MultiLineString", "coordinates": [[[98.67528889, 7.77081944], [98.47637222, 7.80369722], [98.11208333, 7.99294722], [98.02844444, 7.985025], [98.01889444, 8.08507222]]]}}, {"type": "Feature", "properties": {"fid": 4958, "area_code": "PAC", "airport_identifier": "VTUU", "procedure_identifier": "ASAB1C", "transition_identifier": "RW05"}, "geometry": {"type": "MultiLineString", "coordinates": [[[104.35064167, 15.20262222], [104.52195556, 15.17544444], [104.72536111, 15.13923333]]]}}, {"type": "Feature", "properties": {"fid": 4961, "area_code": "PAC", "airport_identifier": "VTBD", "procedure_identifier": "SABA3A", "transition_identifier": "BUT"}, "geometry": {"type": "MultiLineString", "coordinates": [[[101.00047222, 12.66666667], [100.32756389, 13.12281389]]]}}, {"type": "Feature", "properties": {"fid": 4964, "area_code": "PAC", "airport_identifier": "VTBD", "procedure_identifier": "SABA3A", "transition_identifier": "GUTSO"}, "geometry": {"type": "MultiLineString", "coordinates": [[[100.58175, 12.80553889], [100.32756389, 13.12281389]]]}}, {"type": "Feature", "properties": {"fid": 4967, "area_code": "PAC", "airport_identifier": "VTBD", "procedure_identifier": "SABA3A", "transition_identifier": "HOTEL"}, "geometry": {"type": "MultiLineString", "coordinates": [[[100.33008333, 13.00172222], [100.32756389, 13.12281389]]]}}, {"type": "Feature", "properties": {"fid": 4970, "area_code": "PAC", "airport_identifier": "VTBD", "procedure_identifier": "SABA3A", "transition_identifier": "SURMA"}, "geometry": {"type": "MultiLineString", "coordinates": [[[100.44240278, 11.85623611], [100.32756389, 13.12281389]]]}}, {"type": "Feature", "properties": {"fid": 4983, "area_code": "PAC", "airport_identifier": "VTBD", "procedure_identifier": "SABA3A", "transition_identifier": "RW21B"}, "geometry": {"type": "MultiLineString", "coordinates": [[[100.32756389, 13.12281389], [100.32806111, 13.21525], [100.32864167, 13.322175], [100.329325, 13.44640556], [100.29433889, 13.58795556], [100.254075, 13.75068611], [100.31939722, 13.854875], [100.42487778, 14.02286389], [100.48713056, 14.12186111], [100.53964167, 14.20528056], [100.66441389, 14.18948889], [100.69658889, 14.07649444]]]}}, {"type": "Feature", "properties": {"fid": 4989, "area_code": "PAC", "airport_identifier": "VTCL", "procedure_identifier": "OMDI1B", "transition_identifier": "RW18"}, "geometry": {"type": "MultiLineString", "coordinates": [[[99.92950833, 18.18521111], [99.64680278, 18.24583056], [99.63782222, 18.354075], [99.62936944, 18.45581944], [99.48956111, 18.44509722]]]}}, {"type": "Feature", "properties": {"fid": 4992, "area_code": "PAC", "airport_identifier": "VTBS", "procedure_identifier": "NORT1D", "transition_identifier": "ALBOS"}, "geometry": {"type": "MultiLineString", "coordinates": [[[101.02830556, 14.74491667], [100.63901667, 14.71878889]]]}}, {"type": "Feature", "properties": {"fid": 4995, "area_code": "PAC", "airport_identifier": "VTBS", "procedure_identifier": "NORT1D", "transition_identifier": "BLAFF"}, "geometry": {"type": "MultiLineString", "coordinates": [[[100.29753056, 15.27595833], [100.63901667, 14.71878889]]]}}, {"type": "Feature", "properties": {"fid": 4998, "area_code": "PAC", "airport_identifier": "VTBS", "procedure_identifier": "NORT1D", "transition_identifier": "NOBER"}, "geometry": {"type": "MultiLineString", "coordinates": [[[100.66833333, 15.27655556], [100.63901667, 14.71878889]]]}}, {"type": "Feature", "properties": {"fid": 5001, "area_code": "PAC", "airport_identifier": "VTBS", "procedure_identifier": "NORT1D", "transition_identifier": "SEMBO"}, "geometry": {"type": "MultiLineString", "coordinates": [[[100.26331111, 14.89976667], [100.63901667, 14.71878889]]]}}, {"type": "Feature", "properties": {"fid": 5010, "area_code": "PAC", "airport_identifier": "VTBS", "procedure_identifier": "NORT1D", "transition_identifier": null}, "geometry": {"type": "MultiLineString", "coordinates": [[[100.63901667, 14.71878889], [100.72518889, 14.43883889], [100.74821111, 14.23194722], [100.7607, 14.11976667], [100.70915556, 13.92534722], [100.65246944, 13.71105556], [100.60024167, 13.51317778], [100.57888056, 13.43212778]]]}}, {"type": "Feature", "properties": {"fid": 5020, "area_code": "PAC", "airport_identifier": "VTCC", "procedure_identifier": "VISE2A", "transition_identifier": "RW36"}, "geometry": {"type": "MultiLineString", "coordinates": [[[98.57726111, 18.96983611], [98.787075, 18.85867778], [98.83989167, 18.74689722], [98.83930833, 18.43006667], [98.96201944, 18.42981944]]]}}, {"type": "Feature", "properties": {"fid": 5030, "area_code": "PAC", "airport_identifier": "VTCC", "procedure_identifier": "PUMA2B", "transition_identifier": "RW18"}, "geometry": {"type": "MultiLineString", "coordinates": [[[98.83363611, 18.14181944], [99.09924444, 18.46297778], [99.20811667, 18.59416667], [99.20848889, 18.68935833], [99.20886667, 18.78579167], [99.20951944, 18.95139167], [99.20991111, 19.04983056], [99.11962222, 19.05013333], [98.96358889, 19.05055]]]}}, {"type": "Feature", "properties": {"fid": 5038, "area_code": "PAC", "airport_identifier": "VTCC", "procedure_identifier": "MARN2A", "transition_identifier": "RW36"}, "geometry": {"type": "MultiLineString", "coordinates": [[[99.096975, 18.14337222], [99.14446389, 18.23698056], [99.26302222, 18.32301389], [99.29397778, 18.40899444], [99.27062222, 18.523575], [99.08473056, 18.42949167], [98.96201944, 18.42981944]]]}}, {"type": "Feature", "properties": {"fid": 5044, "area_code": "PAC", "airport_identifier": "VTSP", "procedure_identifier": "ONET1C", "transition_identifier": "RW09"}, "geometry": {"type": "MultiLineString", "coordinates": [[[98.77586667, 8.29927222], [98.49885278, 8.25941667], [98.09243056, 8.197775], [98.00933889, 8.18511944], [98.01889444, 8.08507222]]]}}, {"type": "Feature", "properties": {"fid": 5050, "area_code": "PAC", "airport_identifier": "VTSP", "procedure_identifier": "EPGO1C", "transition_identifier": "RW09"}, "geometry": {"type": "MultiLineString", "coordinates": [[[98.76525833, 7.90443056], [98.52115, 8.03145278], [98.11208333, 7.99294722], [98.02844444, 7.985025], [98.01889444, 8.08507222]]]}}, {"type": "Feature", "properties": {"fid": 5058, "area_code": "PAC", "airport_identifier": "VTCC", "procedure_identifier": "PUMA2A", "transition_identifier": "RW36"}, "geometry": {"type": "MultiLineString", "coordinates": [[[98.83363611, 18.14181944], [99.14446389, 18.23698056], [99.26302222, 18.32301389], [99.29397778, 18.40899444], [99.27062222, 18.523575], [99.08473056, 18.42949167], [98.96201944, 18.42981944]]]}}, {"type": "Feature", "properties": {"fid": 5068, "area_code": "PAC", "airport_identifier": "VTCC", "procedure_identifier": "KABM2A", "transition_identifier": "RW36"}, "geometry": {"type": "MultiLineString", "coordinates": [[[99.54640278, 18.46071667], [99.47189444, 18.53425556], [99.41090278, 18.59438611], [99.30162222, 18.53923889], [99.32885278, 18.40555556], [99.29271667, 18.30525], [99.15440833, 18.20489167], [99.08473056, 18.42949167], [98.96201944, 18.42981944]]]}}, {"type": "Feature", "properties": {"fid": 5076, "area_code": "PAC", "airport_identifier": "VTCC", "procedure_identifier": "ENBA2A", "transition_identifier": "RW36"}, "geometry": {"type": "MultiLineString", "coordinates": [[[99.16787778, 18.1614], [99.14446389, 18.23698056], [99.26302222, 18.32301389], [99.29397778, 18.40899444], [99.27062222, 18.523575], [99.08473056, 18.42949167], [98.96201944, 18.42981944]]]}}, {"type": "Feature", "properties": {"fid": 5082, "area_code": "PAC", "airport_identifier": "VTSS", "procedure_identifier": "ELRE1B", "transition_identifier": "RW08"}, "geometry": {"type": "MultiLineString", "coordinates": [[[100.10181389, 7.43768333], [100.13808333, 7.27005278], [100.13808333, 7.12288889], [100.13808333, 6.916425], [100.19886389, 6.83638611]]]}}, {"type": "Feature", "properties": {"fid": 5090, "area_code": "PAC", "airport_identifier": "VTSS", "procedure_identifier": "ENVO1A", "transition_identifier": "RW26"}, "geometry": {"type": "MultiLineString", "coordinates": [[[100.23506944, 7.49259722], [100.26781667, 7.37305278], [100.298775, 7.25997778], [100.40203056, 7.25347222], [100.56294167, 7.24328889], [100.57760833, 7.07377222], [100.58771111, 6.95696389]]]}}, {"type": "Feature", "properties": {"fid": 5096, "area_code": "PAC", "airport_identifier": "VTUD", "procedure_identifier": "MUGN1A", "transition_identifier": "RW12"}, "geometry": {"type": "MultiLineString", "coordinates": [[[102.96483056, 17.85199167], [102.74525278, 17.80075278], [102.62943056, 17.77361389], [102.49901111, 17.52778056], [102.57673889, 17.48986111]]]}}, {"type": "Feature", "properties": {"fid": 5100, "area_code": "PAC", "airport_identifier": "VTCC", "procedure_identifier": "LAMU2X", "transition_identifier": "RW18"}, "geometry": {"type": "MultiLineString", "coordinates": [[[98.67896111, 19.08698333], [98.80755278, 19.05083611], [98.96358889, 19.05055]]]}}, {"type": "Feature", "properties": {"fid": 5108, "area_code": "PAC", "airport_identifier": "VTSS", "procedure_identifier": "TAMO1A", "transition_identifier": "RW26"}, "geometry": {"type": "MultiLineString", "coordinates": [[[100.40180556, 6.53552778], [100.39287778, 6.63910833], [100.39090278, 6.75631944], [100.47403889, 6.76514444], [100.61996944, 6.78344444], [100.69195833, 6.87598889], [100.58771111, 6.95696389]]]}}, {"type": "Feature", "properties": {"fid": 5114, "area_code": "PAC", "airport_identifier": "VTUD", "procedure_identifier": "ANPU1A", "transition_identifier": "RW12"}, "geometry": {"type": "MultiLineString", "coordinates": [[[102.780875, 16.96658333], [102.77861389, 17.12816389], [102.77675556, 17.26056944], [102.52143056, 17.38544444], [102.57673889, 17.48986111]]]}}, {"type": "Feature", "properties": {"fid": 5121, "area_code": "PAC", "airport_identifier": "VTSG", "procedure_identifier": "EMRI1E", "transition_identifier": "RW32"}, "geometry": {"type": "MultiLineString", "coordinates": [[[98.81122778, 8.10584722], [98.84312222, 8.00029167], [98.88187778, 7.88255], [98.945925, 7.80494722], [99.02378333, 7.86871944], [99.11465, 7.9431]]]}}, {"type": "Feature", "properties": {"fid": 5125, "area_code": "PAC", "airport_identifier": "VTSP", "procedure_identifier": "UBNE1C", "transition_identifier": "RW09"}, "geometry": {"type": "MultiLineString", "coordinates": [[[97.80338611, 8.08893611], [97.93523889, 8.07713056], [98.01889444, 8.08507222]]]}}]}